NORAD_CAT_ID,EPOCH,MEAN_MOTION,ECCENTRICITY,INCLINATION,RA_OF_ASC_NODE,ARG_OF_PERICENTER,MEAN_ANOMALY,APOAPSIS,PERIAPSIS,BSTAR,COUNTRY_CODE,RCS_SIZE,NAME,LINE1,LINE2
30322,2025-08-09T10:13:09.517440,14.0541965,0.0125706,98.4114,88.1055,248.9188,109.8502,966.268,783.913,0.0007932,PRC,SMALL,0 FENGYUN 1C DEB,1 30322U 99025AAK 25221.42580460  .00001341  00000-0  79320-3 0  9999,2 30322  98.4114  88.1055 0125706 248.9188 109.8502 14.05419650945780
30325,2025-08-08T19:07:59.310336,14.09048367,0.0015142,98.7442,243.9323,248.9175,111.0377,873.596,851.668,8.7624e-05,PRC,SMALL,0 FENGYUN 1C DEB,1 30325U 99025AAL 25220.79721424  .00000109  00000-0  87624-4 0  9996,2 30325  98.7442 243.9323 0015142 248.9175 111.0377 14.09048367952428
30326,2025-08-08T23:25:55.899552,13.85410308,0.0142368,98.6662,117.8079,13.4092,347.0788,1049.016,840.507,0.00015653,PRC,SMALL,0 FENGYUN 1C DEB,1 30326U 99025AAM 25220.97634143  .00000153  00000-0  15653-3 0  9999,2 30326  98.6662 117.8079 0142368  13.4092 347.0788 13.85410308937143
30327,2025-08-08T04:21:03.746304,14.165753,0.0119693,98.4487,120.7527,148.0307,11.835,923.32,750.601,0.0011291,PRC,SMALL,0 FENGYUN 1C DEB,1 30327U 99025AAN 25220.18129336  .00002374  00000-0  11291-2 0  9996,2 30327  98.4487 120.7527 0119693 148.0307  11.8350 14.16575300946507
30328,2025-08-08T18:51:13.910688,14.12388629,0.0005858,98.6912,234.7019,149.3671,24.623,855.446,846.976,0.00011429,PRC,SMALL,0 FENGYUN 1C DEB,1 30328U 99025AAP 25220.78557767  .00000168  00000-0  11429-3 0  9999,2 30328  98.6912 234.7019 0005858 149.3671  24.6230 14.12388629954869
30329,2025-08-09T12:57:15.894720,13.86591249,0.0142567,99.2547,142.2004,11.5302,161.8417,1044.944,836.262,0.00035897,PRC,SMALL,0 FENGYUN 1C DEB,1 30329U 99025AAQ 25221.53976730  .00000408  00000-0  35897-3 0  9991,2 30329  99.2547 142.2004 0142567  11.5302 161.8417 13.86591249936830
30330,2025-08-08T13:38:34.747008,13.81426005,0.0189389,98.8788,220.1778,163.7592,319.8218,1097.789,819.881,0.00086612,PRC,SMALL,0 FENGYUN 1C DEB,1 30330U 99025AAR 25220.56845772  .00001016  00000-0  86612-3 0  9993,2 30330  98.8788 220.1778 0189389 163.7592 319.8218 13.81426005929155
30331,2025-08-08T08:52:26.445792,13.9762913,0.009638,98.9729,257.9261,356.5475,23.0282,972.185,831.853,0.00013141,PRC,SMALL,0 FENGYUN 1C DEB,1 30331U 99025AAS 25220.36975053  .00000149  00000-0  13141-3 0  9991,2 30331  98.9729 257.9261 0096380 356.5475  23.0282 13.97629130943542
30332,2025-08-08T21:54:37.727424,13.76549594,0.0178797,99.6938,189.9081,70.1359,353.9235,1107.645,844.66,0.0004087,PRC,SMALL,0 FENGYUN 1C DEB,1 30332U 99025AAT 25220.91293666  .00000405  00000-0  40870-3 0  9990,2 30332  99.6938 189.9081 0178797  70.1359 353.9235 13.76549594929943
30334,2025-08-08T22:41:46.663008,13.91662146,0.0144774,99.0204,323.8815,324.6618,98.7824,1028.512,817.115,0.0011229,PRC,SMALL,0 FENGYUN 1C DEB,1 30334U 99025AAV 25220.94567897  .00001508  00000-0  11229-2 0  9995,2 30334  99.0204 323.8815 0144774 324.6618  98.7824 13.91662146934829
30335,2025-08-09T11:12:21.995136,14.01224067,0.0135413,98.8892,215.8849,120.0169,31.2449,987.976,791.147,2.9077e-05,PRC,SMALL,0 FENGYUN 1C DEB,1 30335U 99025AAW 25221.46692124  .00000006  00000-0  29077-4 0  9990,2 30335  98.8892 215.8849 0135413 120.0169  31.2449 14.01224067948420
30336,2025-08-08T19:47:21.452640,14.1907067,0.0043819,98.6126,245.3663,12.4146,168.8656,860.078,796.921,0.00025427,PRC,SMALL,0 FENGYUN 1C DEB,1 30336U 99025AAX 25220.82455385  .00000494  00000-0  25427-3 0  9991,2 30336  98.6126 245.3663 0043819  12.4146 168.8656 14.19070670958165
30338,2025-08-08T18:14:23.937792,14.45406116,0.0278403,98.474,290.418,215.9736,270.9399,938.885,542.504,0.00071071,PRC,SMALL,0 FENGYUN 1C DEB,1 30338U 99025AAZ 25220.75999928  .00003985  00000-0  71071-3 0  9995,2 30338  98.4740 290.4180 0278403 215.9736 270.9399 14.45406116963236
30339,2025-08-09T05:44:40.990848,14.35559784,0.0024663,98.9748,322.4085,92.7788,297.2059,790.846,755.571,0.0019407,PRC,SMALL,0 FENGYUN 1C DEB,1 30339U 99025ABA 25221.23936332  .00005565  00000-0  19407-2 0  9990,2 30339  98.9748 322.4085 0024663  92.7788 297.2059 14.35559784956466
30340,2025-08-08T15:03:20.187072,14.04517384,0.0146474,99.02,278.2697,126.0113,26.9827,984.483,771.91,0.00029245,PRC,SMALL,0 FENGYUN 1C DEB,1 30340U 99025ABB 25220.62731698  .00000470  00000-0  29245-3 0  9994,2 30340  99.0200 278.2697 0146474 126.0113  26.9827 14.04517384950109
30341,2025-08-08T14:32:24.315936,14.31812941,0.0053048,99.2245,100.6207,66.6069,323.771,823.682,747.677,0.0018615,PRC,SMALL,0 FENGYUN 1C DEB,1 30341U 99025ABC 25220.60583699  .00005009  00000-0  18615-2 0  9990,2 30341  99.2245 100.6207 0053048  66.6069 323.7710 14.31812941952758
30342,2025-08-07T10:30:10.832832,13.79790299,0.0169612,100.1931,29.1065,89.6781,300.5408,1089.175,840.09,0.00050236,PRC,SMALL,0 FENGYUN 1C DEB,1 30342U 99025ABD 25219.43762538  .00000530  00000-0  50236-3 0  9991,2 30342 100.1931  29.1065 0169612  89.6781 300.5408 13.79790299931465
30344,2025-08-08T18:07:31.762272,14.48599784,0.0009403,98.8275,296.9286,134.2188,349.0528,736.911,723.543,0.0015906,PRC,SMALL,0 FENGYUN 1C DEB,1 30344U 99025ABF 25220.75522873  .00005941  00000-0  15906-2 0  9991,2 30344  98.8275 296.9286 0009403 134.2188 349.0528 14.48599784962513
30345,2025-08-08T14:11:31.006176,14.39642481,0.0016022,98.9299,274.5709,254.9711,104.9703,771.118,748.246,0.0012666,PRC,SMALL,0 FENGYUN 1C DEB,1 30345U 99025ABG 25220.59133109  .00003920  00000-0  12666-2 0  9999,2 30345  98.9299 274.5709 0016022 254.9711 104.9703 14.39642481959578
30346,2025-08-08T19:46:16.489344,14.31879477,0.0058222,98.8102,315.4613,33.983,82.0251,827.165,743.749,0.0015034,PRC,SMALL,0 FENGYUN 1C DEB,1 30346U 99025ABH 25220.82380196  .00004057  00000-0  15034-2 0  9990,2 30346  98.8102 315.4613 0058222  33.9830  82.0251 14.31879477956104
30347,2025-08-09T00:19:28.941024,13.92687117,0.0150797,98.3852,56.7052,23.4609,128.736,1029.273,809.189,0.00016769,PRC,SMALL,0 FENGYUN 1C DEB,1 30347U 99025ABJ 25221.01352941  .00000200  00000-0  16769-3 0  9993,2 30347  98.3852  56.7052 0150797  23.4609 128.7360 13.92687117942313
30348,2025-08-09T05:08:03.073344,14.33302605,0.0019584,98.8654,312.8521,27.5625,1.1853,794.735,766.695,0.0012278,PRC,SMALL,0 FENGYUN 1C DEB,1 30348U 99025ABK 25221.21392446  .00003343  00000-0  12278-2 0  9991,2 30348  98.8654 312.8521 0019584  27.5625   1.1853 14.33302605957440
30349,2025-08-09T11:35:50.150112,14.10031785,0.009052,98.571,189.5969,10.0787,115.6225,924.778,793.752,0.001781,PRC,SMALL,0 FENGYUN 1C DEB,1 30349U 99025ABL 25221.48321933  .00003225  00000-0  17810-2 0  9990,2 30349  98.5710 189.5969 0090520  10.0787 115.6225 14.10031785944747
30350,2025-08-09T08:36:55.154880,13.82505326,0.0218959,98.0993,57.1347,294.6102,188.2779,1115.582,794.45,0.00051845,PRC,SMALL,0 FENGYUN 1C DEB,1 30350U 99025ABM 25221.35897170  .00000638  00000-0  51845-3 0  9991,2 30350  98.0993  57.1347 0218959 294.6102 188.2779 13.82505326932614
30352,2025-08-08T19:56:03.288768,14.07470624,0.0027613,98.7763,245.5644,314.3256,227.3431,888.051,848.033,0.00022473,PRC,SMALL,0 FENGYUN 1C DEB,1 30352U 99025ABP 25220.83059362  .00000337  00000-0  22473-3 0  9999,2 30352  98.7763 245.5644 0027613 314.3256 227.3431 14.07470624951392
30355,2025-08-09T00:07:48.846144,14.18358545,0.0052852,98.5894,229.3041,312.7893,73.1287,869.013,792.81,0.00057413,PRC,SMALL,0 FENGYUN 1C DEB,1 30355U 99025ABS 25221.00542646  .00001157  00000-0  57413-3 0  9997,2 30355  98.5894 229.3041 0052852 312.7893  73.1287 14.18358545955761
30356,2025-08-08T23:00:38.566944,14.12657754,0.0051569,98.6748,220.0514,287.783,100.8925,887.569,813.017,0.00045375,PRC,SMALL,0 FENGYUN 1C DEB,1 30356U 99025ABT 25220.95877971  .00000808  00000-0  45375-3 0  9999,2 30356  98.6748 220.0514 0051569 287.7830 100.8925 14.12657754952458
30357,2025-08-08T16:30:33.772896,14.05185553,0.0048738,98.8216,251.461,323.4729,155.7485,911.25,840.541,0.00021487,PRC,SMALL,0 FENGYUN 1C DEB,1 30357U 99025ABU 25220.68789089  .00000307  00000-0  21487-3 0  9994,2 30357  98.8216 251.4610 0048738 323.4729 155.7485 14.05185553950368
30358,2025-08-08T12:06:53.642592,14.19562169,0.0082992,98.5633,53.6935,203.6883,211.6264,886.631,767.04,0.0010757,PRC,SMALL,0 FENGYUN 1C DEB,1 30358U 99025ABV 25220.50478753  .00002306  00000-0  10757-2 0  9997,2 30358  98.5633  53.6935 0082992 203.6883 211.6264 14.19562169951265
30359,2025-08-09T09:13:57.046656,13.92815879,0.0145351,101.6263,15.1822,295.1318,63.4814,1024.843,812.72,0.00090461,PRC,SMALL,0 FENGYUN 1C DEB,1 30359U 99025ABW 25221.38468804  .00001212  00000-0  90461-3 0  9997,2 30359 101.6263  15.1822 0145351 295.1318  63.4814 13.92815879933631
30360,2025-08-07T04:29:22.178400,14.2529292,0.0031906,98.7741,288.7368,154.7096,273.0669,830.436,784.583,0.00096734,PRC,SMALL,0 FENGYUN 1C DEB,1 30360U 99025ABX 25219.18706225  .00002245  00000-0  96734-3 0  9992,2 30360  98.7741 288.7368 0031906 154.7096 273.0669 14.25292920956169
30361,2025-08-08T13:13:18.207552,14.24613876,0.0066544,98.5814,259.3596,39.6335,320.9681,857.625,761.962,0.000664,PRC,SMALL,0 FENGYUN 1C DEB,1 30361U 99025ABY 25220.55090518  .00001536  00000-0  66400-3 0  9996,2 30361  98.5814 259.3596 0066544  39.6335 320.9681 14.24613876958196
30362,2025-08-09T05:21:40.111488,14.10434651,0.0098134,99.0459,143.1029,338.1319,21.5677,928.897,786.877,0.0019677,PRC,SMALL,0 FENGYUN 1C DEB,1 30362U 99025ABZ 25221.22338092  .00003615  00000-0  19677-2 0  9997,2 30362  99.0459 143.1029 0098134 338.1319  21.5677 14.10434651944076
30363,2025-08-08T03:47:06.645984,14.15908364,0.0081771,99.039,289.4414,39.6838,321.028,898.243,780.209,0.00089508,PRC,SMALL,0 FENGYUN 1C DEB,1 30363U 99025ACA 25220.15771581  .00001775  00000-0  89508-3 0  9999,2 30363  99.0390 289.4414 0081771  39.6838 321.0280 14.15908364950506
